SL-8 R/B                
1 21088U 91006B   26109.53919238  .00000157  00000+0  14217-3 0  9993
2 21088  82.9409 139.6690 0020934 281.4520 241.4981 13.77502520769695
OKEAN-3                 
1 21397U 91039A   26109.57048271  .00001619  00000+0  11188-3 0  9994
2 21397  82.5132 297.2205 0014070 184.6448 175.4651 15.05025859871183
COSMOS 2151             
1 21422U 91042A   26109.57024762  .00001384  00000+0  10827-3 0  9994
2 21422  82.4981  44.2345 0010640 284.1678  75.8363 15.00276173869326
SL-14 R/B               
1 21423U 91042B   26109.47526157  .00000259  00000+0  29716-4 0  9997
2 21423  82.4956 181.9496 0018549 106.0888 254.2371 14.81866803859117
ERS-1                   
1 21574U 91050A   26109.56932833  .00000203  00000+0  79420-4 0  9991
2 21574  98.7844 128.8261 0033104  81.5631 278.9306 14.39479515821615
ARIANE 40 R/B           
1 21610U 91050F   26109.59243005  .00000164  00000+0  61532-4 0  9992
2 21610  98.1933 160.2769 0002119 331.2338  28.8736 14.42921775824899
INTERCOSMOS 25          
1 21819U 91086A   26109.18515225  .00000901  00000+0  17228-3 0  9994
2 21819  82.5991 285.5170 1485829  29.6641 338.0903 12.12120845501592
SL-8 R/B                
1 21876U 92008B   26109.29019418  .00000005  00000+0 -10374-4 0  9999
2 21876  82.9266 237.5735 0035018  23.4161 359.5456 13.75970053715005
SL-8 R/B                
1 21938U 92020B   26109.58321150 -.00000056  00000+0 -73487-4 0  9994
2 21938  82.9271 123.3909 0028982 180.8184 297.5313 13.75549064706759
USA 81                  
1 21949U 92023A   26109.38566498  .00000122  00000+0  37940-4 0  9999
2 21949  85.0036 107.9487 0001216  92.1966 267.9366 14.32380759100617
COSMOS 2219             
1 22219U 92076A   26109.26616016  .00000247  00000+0  15419-3 0  9991
2 22219  71.0585 293.2456 0017173 143.2618 216.9686 14.14090896724114
SL-16 R/B               
1 22220U 92076B   26109.28149211 -.00000093  00000+0 -22637-4 0  9995
2 22220  70.9982 102.8681 0011722  23.2860 347.7202 14.16867004727586
COSMOS 2221             
1 22236U 92080A   26109.63099350  .00001348  00000+0  11649-3 0  9996
2 22236  82.5035 239.8530 0015377  58.8211 301.4517 14.96370226786910
SL-16 R/B               
1 22285U 92093B   26109.16270654  .00000089  00000+0  69927-4 0  9994
2 22285  71.0199 279.3007 0006291 252.4971 107.5465 14.15453806718881
COSMOS 2228             
1 22286U 92094A   26109.55298264  .00001337  00000+0  11238-3 0  9994
2 22286  82.5206 198.1900 0018558 160.2896 199.9049 14.97390749782171
SL-16 R/B               
1 22566U 93016B   26109.20719325 -.00000234  00000+0 -95556-4 0  9991
2 22566  71.0044 130.0857 0012640 263.2721  96.6963 14.15312021707901
COSMOS 2242             
1 22626U 93024A   26109.28567553  .00001380  00000+0  11825-3 0  9996
2 22626  82.5196 227.8792 0016759 164.1824 195.9926 14.96723126786465
