[{"OBJECT_NAME":"SL-8 R/B","OBJECT_ID":"1991-006B","EPOCH":"2026-04-19T12:56:26.221632","MEAN_MOTION":13.7750252,"ECCENTRICITY":0.0020934,"INCLINATION":82.9409,"RA_OF_ASC_NODE":139.669,"ARG_OF_PERICENTER":281.452,"MEAN_ANOMALY":241.4981,"EPHEMERIS_TYPE":0,"CLASSIFICATION_TYPE":"U","NORAD_CAT_ID":21088,"ELEMENT_SET_NO":999,"REV_AT_EPOCH":76969,"BSTAR":0.00014217072,"MEAN_MOTION_DOT":1.57e-6,"MEAN_MOTION_DDOT":0},{"OBJECT_NAME":"OKEAN-3","OBJECT_ID":"1991-039A","EPOCH":"2026-04-19T13:41:29.706144","MEAN_MOTION":15.05025859,"ECCENTRICITY":0.00140704,"INCLINATION":82.5132,"RA_OF_ASC_NODE":297.2205,"ARG_OF_PERICENTER":184.6448,"MEAN_ANOMALY":175.4651,"EPHEMERIS_TYPE":0,"CLASSIFICATION_TYPE":"U","NORAD_CAT_ID":21397,"ELEMENT_SET_NO":999,"REV_AT_EPOCH":87118,"BSTAR":0.0001118816,"MEAN_MOTION_DOT":1.619e-5,"MEAN_MOTION_DDOT":0},{"OBJECT_NAME":"COSMOS 2151","OBJECT_ID":"1991-042A","EPOCH":"2026-04-19T13:41:09.394368","MEAN_MOTION":15.00276173,"ECCENTRICITY":0.00106402,"INCLINATION":82.4981,"RA_OF_ASC_NODE":44.2345,"ARG_OF_PERICENTER":284.1678,"MEAN_ANOMALY":75.8363,"EPHEMERIS_TYPE":0,"CLASSIFICATION_TYPE":"U","NORAD_CAT_ID":21422,"ELEMENT_SET_NO":999,"REV_AT_EPOCH":86932,"BSTAR":0.00010827371,"MEAN_MOTION_DOT":1.384e-5,"MEAN_MOTION_DDOT":0},{"OBJECT_NAME":"SL-14 R/B","OBJECT_ID":"1991-042B","EPOCH":"2026-04-19T11:24:22.599648","MEAN_MOTION":14.81866803,"ECCENTRICITY":0.00185496,"INCLINATION":82.4956,"RA_OF_ASC_NODE":181.9496,"ARG_OF_PERICENTER":106.0888,"MEAN_ANOMALY":254.2371,"EPHEMERIS_TYPE":0,"CLASSIFICATION_TYPE":"U","NORAD_CAT_ID":21423,"ELEMENT_SET_NO":999,"REV_AT_EPOCH":85911,"BSTAR":2.9715591e-5,"MEAN_MOTION_DOT":2.59e-6,"MEAN_MOTION_DDOT":0},{"OBJECT_NAME":"ERS-1","OBJECT_ID":"1991-050A","EPOCH":"2026-04-19T13:39:49.967712","MEAN_MOTION":14.39479515,"ECCENTRICITY":0.00331047,"INCLINATION":98.7844,"RA_OF_ASC_NODE":128.8261,"ARG_OF_PERICENTER":81.5631,"MEAN_ANOMALY":278.9306,"EPHEMERIS_TYPE":0,"CLASSIFICATION_TYPE":"U","NORAD_CAT_ID":21574,"ELEMENT_SET_NO":999,"REV_AT_EPOCH":82161,"BSTAR":7.9419996e-5,"MEAN_MOTION_DOT":2.03e-6,"MEAN_MOTION_DDOT":0},{"OBJECT_NAME":"ARIANE 40 R/B","OBJECT_ID":"1991-050F","EPOCH":"2026-04-19T14:13:05.956320","MEAN_MOTION":14.42921775,"ECCENTRICITY":0.00021195,"INCLINATION":98.1933,"RA_OF_ASC_NODE":160.2769,"ARG_OF_PERICENTER":331.2338,"MEAN_ANOMALY":28.8736,"EPHEMERIS_TYPE":0,"CLASSIFICATION_TYPE":"U","NORAD_CAT_ID":21610,"ELEMENT_SET_NO":999,"REV_AT_EPOCH":82489,"BSTAR":6.1532064e-5,"MEAN_MOTION_DOT":1.64e-6,"MEAN_MOTION_DDOT":0},{"OBJECT_NAME":"INTERCOSMOS 25","OBJECT_ID":"1991-086A","EPOCH":"2026-04-19T04:26:37.154400","MEAN_MOTION":12.12120845,"ECCENTRICITY":0.14858292,"INCLINATION":82.5991,"RA_OF_ASC_NODE":285.517,"ARG_OF_PERICENTER":29.6641,"MEAN_ANOMALY":338.0903,"EPHEMERIS_TYPE":0,"CLASSIFICATION_TYPE":"U","NORAD_CAT_ID":21819,"ELEMENT_SET_NO":999,"REV_AT_EPOCH":50159,"BSTAR":0.00017227558,"MEAN_MOTION_DOT":9.01e-6,"MEAN_MOTION_DDOT":0},{"OBJECT_NAME":"SL-8 R/B","OBJECT_ID":"1992-008B","EPOCH":"2026-04-19T06:57:52.777152","MEAN_MOTION":13.75970053,"ECCENTRICITY":0.0035018,"INCLINATION":82.9266,"RA_OF_ASC_NODE":237.5735,"ARG_OF_PERICENTER":23.4161,"MEAN_ANOMALY":359.5456,"EPHEMERIS_TYPE":0,"CLASSIFICATION_TYPE":"U","NORAD_CAT_ID":21876,"ELEMENT_SET_NO":999,"REV_AT_EPOCH":71500,"BSTAR":-1.0374e-5,"MEAN_MOTION_DOT":5.0e-8,"MEAN_MOTION_DDOT":0},{"OBJECT_NAME":"SL-8 R/B","OBJECT_ID":"1992-020B","EPOCH":"2026-04-19T13:59:49.473600","MEAN_MOTION":13.75549064,"ECCENTRICITY":0.00289827,"INCLINATION":82.9271,"RA_OF_ASC_NODE":123.3909,"ARG_OF_PERICENTER":180.8184,"MEAN_ANOMALY":297.5313,"EPHEMERIS_TYPE":0,"CLASSIFICATION_TYPE":"U","NORAD_CAT_ID":21938,"ELEMENT_SET_NO":999,"REV_AT_EPOCH":70675,"BSTAR":-7.3487416e-5,"MEAN_MOTION_DOT":-5.6e-7,"MEAN_MOTION_DDOT":0},{"OBJECT_NAME":"USA 81","OBJECT_ID":"1992-023A","EPOCH":"2026-04-19T09:15:21.454272","MEAN_MOTION":14.32380759,"ECCENTRICITY":0.00012163,"INCLINATION":85.0036,"RA_OF_ASC_NODE":107.9487,"ARG_OF_PERICENTER":92.1966,"MEAN_ANOMALY":267.9366,"EPHEMERIS_TYPE":0,"CLASSIFICATION_TYPE":"U","NORAD_CAT_ID":21949,"ELEMENT_SET_NO":999,"REV_AT_EPOCH":10061,"BSTAR":3.7939948e-5,"MEAN_MOTION_DOT":1.22e-6,"MEAN_MOTION_DDOT":0},{"OBJECT_NAME":"COSMOS 2219","OBJECT_ID":"1992-076A","EPOCH":"2026-04-19T06:23:16.237824","MEAN_MOTION":14.14090896,"ECCENTRICITY":0.0017173,"INCLINATION":71.0585,"RA_OF_ASC_NODE":293.2456,"ARG_OF_PERICENTER":143.2618,"MEAN_ANOMALY":216.9686,"EPHEMERIS_TYPE":0,"CLASSIFICATION_TYPE":"U","NORAD_CAT_ID":22219,"ELEMENT_SET_NO":999,"REV_AT_EPOCH":72411,"BSTAR":0.00015419,"MEAN_MOTION_DOT":2.47e-6,"MEAN_MOTION_DDOT":0},{"OBJECT_NAME":"SL-16 R/B","OBJECT_ID":"1992-076B","EPOCH":"2026-04-19T06:45:20.918304","MEAN_MOTION":14.16867004,"ECCENTRICITY":0.0011722,"INCLINATION":70.9982,"RA_OF_ASC_NODE":102.8681,"ARG_OF_PERICENTER":23.286,"MEAN_ANOMALY":347.7202,"EPHEMERIS_TYPE":0,"CLASSIFICATION_TYPE":"U","NORAD_CAT_ID":22220,"ELEMENT_SET_NO":999,"REV_AT_EPOCH":72758,"BSTAR":-2.2637e-5,"MEAN_MOTION_DOT":-9.3e-7,"MEAN_MOTION_DDOT":0},{"OBJECT_NAME":"COSMOS 2221","OBJECT_ID":"1992-080A","EPOCH":"2026-04-19T15:08:37.838400","MEAN_MOTION":14.96370226,"ECCENTRICITY":0.00153772,"INCLINATION":82.5035,"RA_OF_ASC_NODE":239.853,"ARG_OF_PERICENTER":58.8211,"MEAN_ANOMALY":301.4517,"EPHEMERIS_TYPE":0,"CLASSIFICATION_TYPE":"U","NORAD_CAT_ID":22236,"ELEMENT_SET_NO":999,"REV_AT_EPOCH":78691,"BSTAR":0.00011649453,"MEAN_MOTION_DOT":1.348e-5,"MEAN_MOTION_DDOT":0},{"OBJECT_NAME":"SL-16 R/B","OBJECT_ID":"1992-093B","EPOCH":"2026-04-19T03:54:17.845056","MEAN_MOTION":14.15453806,"ECCENTRICITY":0.0006291,"INCLINATION":71.0199,"RA_OF_ASC_NODE":279.3007,"ARG_OF_PERICENTER":252.4971,"MEAN_ANOMALY":107.5465,"EPHEMERIS_TYPE":0,"CLASSIFICATION_TYPE":"U","NORAD_CAT_ID":22285,"ELEMENT_SET_NO":999,"REV_AT_EPOCH":71888,"BSTAR":6.9926598e-5,"MEAN_MOTION_DOT":8.9e-7,"MEAN_MOTION_DDOT":0},{"OBJECT_NAME":"COSMOS 2228","OBJECT_ID":"1992-094A","EPOCH":"2026-04-19T13:16:17.700096","MEAN_MOTION":14.97390749,"ECCENTRICITY":0.00185581,"INCLINATION":82.5206,"RA_OF_ASC_NODE":198.19,"ARG_OF_PERICENTER":160.2896,"MEAN_ANOMALY":199.9049,"EPHEMERIS_TYPE":0,"CLASSIFICATION_TYPE":"U","NORAD_CAT_ID":22286,"ELEMENT_SET_NO":999,"REV_AT_EPOCH":78217,"BSTAR":0.00011237964,"MEAN_MOTION_DOT":1.337e-5,"MEAN_MOTION_DDOT":0},{"OBJECT_NAME":"SL-16 R/B","OBJECT_ID":"1993-016B","EPOCH":"2026-04-19T04:58:21.496800","MEAN_MOTION":14.15312021,"ECCENTRICITY":0.00126407,"INCLINATION":71.0044,"RA_OF_ASC_NODE":130.0857,"ARG_OF_PERICENTER":263.2721,"MEAN_ANOMALY":96.6963,"EPHEMERIS_TYPE":0,"CLASSIFICATION_TYPE":"U","NORAD_CAT_ID":22566,"ELEMENT_SET_NO":999,"REV_AT_EPOCH":70790,"BSTAR":-9.5556289e-5,"MEAN_MOTION_DOT":-2.34e-6,"MEAN_MOTION_DDOT":0},{"OBJECT_NAME":"COSMOS 2242","OBJECT_ID":"1993-024A","EPOCH":"2026-04-19T06:51:22.365792","MEAN_MOTION":14.96723126,"ECCENTRICITY":0.0016759,"INCLINATION":82.5196,"RA_OF_ASC_NODE":227.8792,"ARG_OF_PERICENTER":164.1824,"MEAN_ANOMALY":195.9926,"EPHEMERIS_TYPE":0,"CLASSIFICATION_TYPE":"U","NORAD_CAT_ID":22626,"ELEMENT_SET_NO":999,"REV_AT_EPOCH":78646,"BSTAR":0.00011825,"MEAN_MOTION_DOT":1.38e-5,"MEAN_MOTION_DDOT":0}]
